{
  "type": "FeatureCollection",
  "features": [
    {
      "type": "Feature",
      "properties": {
        "building_id": 68,
        "description": "Oriented external footprint derived from apartment and stair/core polygons"
      },
      "geometry": {
        "type": "Polygon",
        "coordinates": [
          [
            [
              0.6782418303737154,
              5.556363187586792
            ],
            [
              16.223527930484163,
              5.585119616698899
            ],
            [
              16.335480555017902,
              5.532423168980611
            ],
            [
              16.388202829305246,
              -3.675311368698558
            ],
            [
              16.33555364998918,
              -3.787222606869413
            ],
            [
              9.83683743491024,
              -3.839598241260092
            ],
            [
              9.829623453170427,
              -3.992201773237847
            ],
            [
              9.733145073385689,
              -3.9971203695127824
            ],
            [
              7.170705476703,
              -3.9971203695127833
            ],
            [
              7.162270877192771,
              -3.8316755048814657
            ],
            [
              0.7120010095112939,
              -3.843607528969613
            ],
            [
              0.7061575956767485,
              -4.935179798059394
            ],
            [
              0.559065163810073,
              -5.08733128520395
            ],
            [
              -6.665640662375033,
              -5.105328418479374
            ],
            [
              -6.6758961485857595,
              -5.322271498507718
            ],
            [
              -9.173984913126354,
              -5.331632710913248
            ],
            [
              -9.270480829883521,
              -5.327071087912584
            ],
            [
              -9.280227049833126,
              -5.13589875800302
            ],
            [
              -15.798375148625773,
              -5.143326871712739
            ],
            [
              -15.910226058121872,
              -5.090624406469997
            ],
            [
              -15.960266596143402,
              1.9060438348140534
            ],
            [
              -13.986164424019343,
              4.241001506261326
            ],
            [
              0.5558055171967027,
              4.2998444001432325
            ],
            [
              0.5309659356308718,
              5.400141743302658
            ],
            [
              0.6782418303737154,
              5.556363187586792
            ]
          ]
        ]
      }
    }
  ]
}