{
  "type": "FeatureCollection",
  "features": [
    {
      "type": "Feature",
      "properties": {
        "building_id": 75,
        "description": "Oriented external footprint derived from apartment and stair/core polygons"
      },
      "geometry": {
        "type": "Polygon",
        "coordinates": [
          [
            [
              -10.435991887424356,
              4.258757157138385
            ],
            [
              11.003867948156213,
              4.204274037236746
            ],
            [
              10.98891775934518,
              -4.138685564457486
            ],
            [
              2.060815969419402,
              -4.178042534183418
            ],
            [
              2.0549738803837045,
              -4.791808838444792
            ],
            [
              -0.5851578941825215,
              -4.791808838444792
            ],
            [
              -0.6816365415740961,
              -4.786895494094805
            ],
            [
              -0.6852179268495562,
              -4.141506113244537
            ],
            [
              -10.397067624683011,
              -4.112140705094267
            ],
            [
              -10.513879496545059,
              -4.0492194130550025
            ],
            [
              -10.498785422297722,
              4.142455736724594
            ],
            [
              -10.435991887424356,
              4.258757157138385
            ]
          ]
        ]
      }
    }
  ]
}