{
  "type": "FeatureCollection",
  "features": [
    {
      "type": "Feature",
      "properties": {
        "building_id": 34,
        "description": "Oriented external footprint derived from apartment and stair/core polygons"
      },
      "geometry": {
        "type": "Polygon",
        "coordinates": [
          [
            [
              0.85016616494309,
              15.117885036811337
            ],
            [
              20.65564836573449,
              14.566448852285959
            ],
            [
              20.36296726390453,
              1.901832084044086
            ],
            [
              13.072314511129754,
              2.1648639285875078
            ],
            [
              10.497973926552593,
              2.1648639285875078
            ],
            [
              0.5328731625042771,
              2.48036094899196
            ],
            [
              0.85016616494309,
              15.117885036811337
            ]
          ]
        ]
      }
    }
  ]
}