{
  "type": "FeatureCollection",
  "features": [
    {
      "type": "Feature",
      "properties": {
        "building_id": 35,
        "description": "Oriented external footprint derived from apartment and stair/core polygons"
      },
      "geometry": {
        "type": "Polygon",
        "coordinates": [
          [
            [
              -1.0559282400464958,
              16.381028834212113
            ],
            [
              2.6382815184404462,
              16.380922427734145
            ],
            [
              2.6573298615020606,
              15.503535591543464
            ],
            [
              6.0517868279986935,
              15.557604660654759
            ],
            [
              6.051801709381293,
              16.07425505519955
            ],
            [
              8.298607834038638,
              16.093231064370478
            ],
            [
              8.279478730523703,
              16.342003112894407
            ],
            [
              16.570221686986265,
              16.3614133139275
            ],
            [
              16.55044041304486,
              5.919855346880949
            ],
            [
              -1.0951911035289421,
              5.919855346880947
            ],
            [
              -1.0559282400464958,
              16.381028834212113
            ]
          ]
        ]
      }
    }
  ]
}