{
  "type": "FeatureCollection",
  "features": [
    {
      "type": "Feature",
      "properties": {
        "building_id": 33,
        "description": "Oriented external footprint derived from apartment and stair/core polygons"
      },
      "geometry": {
        "type": "Polygon",
        "coordinates": [
          [
            [
              7.117814885666214,
              2.6928438302553808
            ],
            [
              7.117545588146733,
              2.5910406902832697
            ],
            [
              0.9254269597685113,
              2.5910406902832683
            ],
            [
              0.4367782214213576,
              14.207574122851424
            ],
            [
              10.777960674217981,
              14.20040627360188
            ],
            [
              13.82276712457874,
              14.28867986617995
            ],
            [
              14.311548397731647,
              2.6689957143297796
            ],
            [
              7.117814885666214,
              2.6928438302553808
            ]
          ]
        ]
      }
    }
  ]
}