{
  "type": "FeatureCollection",
  "features": [
    {
      "type": "Feature",
      "properties": {
        "building_id": 2,
        "description": "Oriented footprint (new pickle format)"
      },
      "geometry": {
        "type": "Polygon",
        "coordinates": [
          [
            [
              16.061820337040288,
              18.625028149749102
            ],
            [
              16.08259377460803,
              17.885025351686604
            ],
            [
              20.86546402088779,
              17.850883831709965
            ],
            [
              20.702201118482048,
              9.76780434195043
            ],
            [
              11.914469239537992,
              9.776682488052902
            ],
            [
              11.904858918522857,
              9.358308654314431
            ],
            [
              9.164155932944798,
              9.358308654314435
            ],
            [
              9.169362466787584,
              9.792747074902344
            ],
            [
              0.5072852810978254,
              9.80232541171129
            ],
            [
              0.5384977828761137,
              17.90118670089022
            ],
            [
              5.671437548501052,
              17.90149220877247
            ],
            [
              5.6828311511289265,
              18.640957365040347
            ],
            [
              16.061820337040288,
              18.625028149749102
            ]
          ]
        ]
      }
    }
  ]
}